{"type": "FeatureCollection", "features": [ {"type": "Feature", "properties": {"norad_id": 37834, "name": "INTELSAT 18 (IS-18)", "group": "intelsat", "lat": -0.00827590056300082, "lon": -49.793178039611156, "alt_km": 35781.2726443306, "timestamp": "2025-12-04T03:47:54.221707+00:00", "meta": {"OBJECT_NAME": "INTELSAT 18 (IS-18)", "OBJECT_ID": "2011-056A", "EPOCH": "2025-12-03T18:01:38.697312", "MEAN_MOTION": 1.00271033, "ECCENTRICITY": 0.0002101, "INCLINATION": 0.0165, "RA_OF_ASC_NODE": 322.052, "ARG_OF_PERICENTER": 292.2737, "MEAN_ANOMALY": 268.919, "EPHEMERIS_TYPE": 0, "CLASSIFICATION_TYPE": "U", "NORAD_CAT_ID": 37834, "ELEMENT_SET_NO": 999, "REV_AT_EPOCH": 5185, "BSTAR": 0, "MEAN_MOTION_DOT": 7e-07, "MEAN_MOTION_DDOT": 0}, "tle": {"line1": "1 37834U 11056A   25337.75114233  .00000070  00000+0  00000+0 0  9999", "line2": "2 37834   0.0165 322.0520 0002101 292.2737 268.9190  1.00271033 51850"}}, "geometry": {"type": "Point", "coordinates": [-49.793178039611156, -0.00827590056300082]}}, {"type": "Feature", "properties": {"norad_id": 38098, "name": "INTELSAT 22 (IS-22)", "group": "intelsat", "lat": -0.017949223280751186, "lon": -157.72188008927708, "alt_km": 35782.337333568306, "timestamp": "2025-12-04T03:47:54.221719+00:00", "meta": {"OBJECT_NAME": "INTELSAT 22 (IS-22)", "OBJECT_ID": "2012-011A", "EPOCH": "2025-12-03T10:40:30.923904", "MEAN_MOTION": 1.00270985, "ECCENTRICITY": 0.0001695, "INCLINATION": 0.0039, "RA_OF_ASC_NODE": 355.7027, "ARG_OF_PERICENTER": 263.1859, "MEAN_ANOMALY": 45.8802, "EPHEMERIS_TYPE": 0, "CLASSIFICATION_TYPE": "U", "NORAD_CAT_ID": 38098, "ELEMENT_SET_NO": 999, "REV_AT_EPOCH": 522, "BSTAR": 0, "MEAN_MOTION_DOT": -4e-07, "MEAN_MOTION_DDOT": 0}, "tle": {"line1": "1 38098U 12011A   25337.44480236 -.00000040  00000+0  00000+0 0  9997", "line2": "2 38098   0.0039 355.7027 0001695 263.1859  45.8802  1.00270985  5224"}}, "geometry": {"type": "Point", "coordinates": [-157.72188008927708, -0.017949223280751186]}}, {"type": "Feature", "properties": {"norad_id": 38356, "name": "INTELSAT 19 (IS-19)", "group": "intelsat", "lat": -0.012826255797426406, "lon": -63.76478750197762, "alt_km": 35774.58336983228, "timestamp": "2025-12-04T03:47:54.221731+00:00", "meta": {"OBJECT_NAME": "INTELSAT 19 (IS-19)", "OBJECT_ID": "2012-030A", "EPOCH": "2025-12-03T04:16:18.861312", "MEAN_MOTION": 1.00271683, "ECCENTRICITY": 0.000347, "INCLINATION": 0.0099, "RA_OF_ASC_NODE": 315.9316, "ARG_OF_PERICENTER": 301.8821, "MEAN_ANOMALY": 44.556, "EPHEMERIS_TYPE": 0, "CLASSIFICATION_TYPE": "U", "NORAD_CAT_ID": 38356, "ELEMENT_SET_NO": 999, "REV_AT_EPOCH": 4848, "BSTAR": 0, "MEAN_MOTION_DOT": -3.7e-07, "MEAN_MOTION_DDOT": 0}, "tle": {"line1": "1 38356U 12030A   25337.17799608 -.00000037  00000+0  00000+0 0  9997", "line2": "2 38356   0.0099 315.9316 0003470 301.8821  44.5560  1.00271683 48486"}}, "geometry": {"type": "Point", "coordinates": [-63.76478750197762, -0.012826255797426406]}}, {"type": "Feature", "properties": {"norad_id": 38740, "name": "INTELSAT 20 (IS-20)", "group": "intelsat", "lat": -0.027810735666570614, "lon": -161.3115043632521, "alt_km": 35772.558431843594, "timestamp": "2025-12-04T03:47:54.221743+00:00", "meta": {"OBJECT_NAME": "INTELSAT 20 (IS-20)", "OBJECT_ID": "2012-043A", "EPOCH": "2025-12-02T22:40:15.332160", "MEAN_MOTION": 1.00274497, "ECCENTRICITY": 0.0003028, "INCLINATION": 0.0125, "RA_OF_ASC_NODE": 336.6425, "ARG_OF_PERICENTER": 218.4136, "MEAN_ANOMALY": 285.5325, "EPHEMERIS_TYPE": 0, "CLASSIFICATION_TYPE": "U", "NORAD_CAT_ID": 38740, "ELEMENT_SET_NO": 999, "REV_AT_EPOCH": 4878, "BSTAR": 0, "MEAN_MOTION_DOT": 0, "MEAN_MOTION_DDOT": 0}, "tle": {"line1": "1 38740U 12043A   25336.94462190  .00000000  00000+0  00000+0 0  9994", "line2": "2 38740   0.0125 336.6425 0003028 218.4136 285.5325  1.00274497 48780"}}, "geometry": {"type": "Point", "coordinates": [-161.3115043632521, -0.027810735666570614]}}, {"type": "Feature", "properties": {"norad_id": 38749, "name": "INTELSAT 21 (IS-21)", "group": "intelsat", "lat": 0.039413916965422735, "lon": 72.17987183303775, "alt_km": 35797.21579847091, "timestamp": "2025-12-04T03:47:54.221755+00:00", "meta": {"OBJECT_NAME": "INTELSAT 21 (IS-21)", "OBJECT_ID": "2012-045A", "EPOCH": "2025-12-03T08:20:36.826080", "MEAN_MOTION": 1.00269041, "ECCENTRICITY": 0.0002452, "INCLINATION": 0.0163, "RA_OF_ASC_NODE": 324.7378, "ARG_OF_PERICENTER": 278.7741, "MEAN_ANOMALY": 256.0819, "EPHEMERIS_TYPE": 0, "CLASSIFICATION_TYPE": "U", "NORAD_CAT_ID": 38749, "ELEMENT_SET_NO": 999, "REV_AT_EPOCH": 4856, "BSTAR": 0, "MEAN_MOTION_DOT": -2.66e-06, "MEAN_MOTION_DDOT": 0}, "tle": {"line1": "1 38749U 12045A   25337.34764845 -.00000266  00000+0  00000+0 0  9997", "line2": "2 38749   0.0163 324.7378 0002452 278.7741 256.0819  1.00269041 48563"}}, "geometry": {"type": "Point", "coordinates": [72.17987183303775, 0.039413916965422735]}}, {"type": "Feature", "properties": {"norad_id": 38867, "name": "INTELSAT 23 (IS-23)", "group": "intelsat", "lat": 0.019195461862243433, "lon": 77.17033536143117, "alt_km": 35792.34255234476, "timestamp": "2025-12-04T03:47:54.221766+00:00", "meta": {"OBJECT_NAME": "INTELSAT 23 (IS-23)", "OBJECT_ID": "2012-057A", "EPOCH": "2025-12-03T08:21:59.193792", "MEAN_MOTION": 1.00269988, "ECCENTRICITY": 0.0001762, "INCLINATION": 0.0465, "RA_OF_ASC_NODE": 117.5888, "ARG_OF_PERICENTER": 98.834, "MEAN_ANOMALY": 288.5116, "EPHEMERIS_TYPE": 0, "CLASSIFICATION_TYPE": "U", "NORAD_CAT_ID": 38867, "ELEMENT_SET_NO": 999, "REV_AT_EPOCH": 4799, "BSTAR": 0, "MEAN_MOTION_DOT": -2.66e-06, "MEAN_MOTION_DDOT": 0}, "tle": {"line1": "1 38867U 12057A   25337.34860178 -.00000266  00000+0  00000+0 0  9997", "line2": "2 38867   0.0465 117.5888 0001762  98.8340 288.5116  1.00269988 47998"}}, "geometry": {"type": "Point", "coordinates": [77.17033536143117, 0.019195461862243433]}}, {"type": "Feature", "properties": {"norad_id": 39360, "name": "FM-6", "group": "intelsat", "lat": -0.012806014554580837, "lon": 14.015442754420327, "alt_km": 35797.56519942011, "timestamp": "2025-12-04T03:47:54.221778+00:00", "meta": {"OBJECT_NAME": "FM-6", "OBJECT_ID": "2013-058A", "EPOCH": "2025-12-03T09:46:43.577184", "MEAN_MOTION": 1.00270039, "ECCENTRICITY": 0.0002808, "INCLINATION": 0.0045, "RA_OF_ASC_NODE": 100.0158, "ARG_OF_PERICENTER": 73.0769, "MEAN_ANOMALY": 289.9269, "EPHEMERIS_TYPE": 0, "CLASSIFICATION_TYPE": "U", "NORAD_CAT_ID": 39360, "ELEMENT_SET_NO": 999, "REV_AT_EPOCH": 4411, "BSTAR": 0, "MEAN_MOTION_DOT": 2e-08, "MEAN_MOTION_DDOT": 0}, "tle": {"line1": "1 39360U 13058A   25337.40744881  .00000002  00000+0  00000+0 0  9994", "line2": "2 39360   0.0045 100.0158 0002808  73.0769 289.9269  1.00270039 44114"}}, "geometry": {"type": "Point", "coordinates": [14.015442754420327, -0.012806014554580837]}}, {"type": "Feature", "properties": {"norad_id": 40271, "name": "INTELSAT 30 (IS-30)", "group": "intelsat", "lat": 0.023668554350193226, "lon": 35.12472629360112, "alt_km": 35782.98447715996, "timestamp": "2025-12-04T03:47:54.221790+00:00", "meta": {"OBJECT_NAME": "INTELSAT 30 (IS-30)", "OBJECT_ID": "2014-062A", "EPOCH": "2025-12-03T13:18:15.813216", "MEAN_MOTION": 1.0026974, "ECCENTRICITY": 0.0001185, "INCLINATION": 0.015, "RA_OF_ASC_NODE": 10.642, "ARG_OF_PERICENTER": 67.2421, "MEAN_ANOMALY": 99.2718, "EPHEMERIS_TYPE": 0, "CLASSIFICATION_TYPE": "U", "NORAD_CAT_ID": 40271, "ELEMENT_SET_NO": 999, "REV_AT_EPOCH": 482, "BSTAR": 0, "MEAN_MOTION_DOT": -1.33e-06, "MEAN_MOTION_DDOT": 0}, "tle": {"line1": "1 40271U 14062A   25337.55434969 -.00000133  00000+0  00000+0 0  9998", "line2": "2 40271   0.0150  10.6420 0001185  67.2421  99.2718  1.00269740  4821"}}, "geometry": {"type": "Point", "coordinates": [35.12472629360112, 0.023668554350193226]}}, {"type": "Feature", "properties": {"norad_id": 40333, "name": "DIRECTV 14", "group": "intelsat", "lat": 0.039921623073606805, "lon": 30.976975708831734, "alt_km": 35788.25510622051, "timestamp": "2025-12-04T03:47:54.221801+00:00", "meta": {"OBJECT_NAME": "DIRECTV 14", "OBJECT_ID": "2014-078B", "EPOCH": "2025-12-03T13:17:00.932064", "MEAN_MOTION": 1.00273104, "ECCENTRICITY": 6e-05, "INCLINATION": 0.0174, "RA_OF_ASC_NODE": 324.7711, "ARG_OF_PERICENTER": 245.1264, "MEAN_ANOMALY": 322.7814, "EPHEMERIS_TYPE": 0, "CLASSIFICATION_TYPE": "U", "NORAD_CAT_ID": 40333, "ELEMENT_SET_NO": 999, "REV_AT_EPOCH": 4008, "BSTAR": 0, "MEAN_MOTION_DOT": -1.08e-06, "MEAN_MOTION_DDOT": 0}, "tle": {"line1": "1 40333U 14078B   25337.55348301 -.00000108  00000+0  00000+0 0  9990", "line2": "2 40333   0.0174 324.7711 0000600 245.1264 322.7814  1.00273104 40089"}}, "geometry": {"type": "Point", "coordinates": [30.976975708831734, 0.039921623073606805]}}, {"type": "Feature", "properties": {"norad_id": 40663, "name": "DIRECTV 15", "group": "intelsat", "lat": 0.00010707131780838836, "lon": 27.31709970085131, "alt_km": 35788.42086760352, "timestamp": "2025-12-04T03:47:54.221813+00:00", "meta": {"OBJECT_NAME": "DIRECTV 15", "OBJECT_ID": "2015-026A", "EPOCH": "2025-12-03T16:41:14.396064", "MEAN_MOTION": 1.00270168, "ECCENTRICITY": 4.61e-05, "INCLINATION": 0.0439, "RA_OF_ASC_NODE": 95.4072, "ARG_OF_PERICENTER": 127.1851, "MEAN_ANOMALY": 357.6265, "EPHEMERIS_TYPE": 0, "CLASSIFICATION_TYPE": "U", "NORAD_CAT_ID": 40663, "ELEMENT_SET_NO": 999, "REV_AT_EPOCH": 3850, "BSTAR": 0, "MEAN_MOTION_DOT": -8.5e-07, "MEAN_MOTION_DDOT": 0}, "tle": {"line1": "1 40663U 15026A   25337.69530551 -.00000085  00000+0  00000+0 0  9999", "line2": "2 40663   0.0439  95.4072 0000461 127.1851 357.6265  1.00270168 38505"}}, "geometry": {"type": "Point", "coordinates": [27.31709970085131, 0.00010707131780838836]}}]}